[{"OBJECT_NAME":"KUIPER-00063","OBJECT_ID":"2025-134Z","EPOCH":"2026-03-09T18:14:14.102880","MEAN_MOTION":14.79988084,"ECCENTRICITY":4.939e-5,"INCLINATION":51.9013,"RA_OF_ASC_NODE":237.7873,"ARG_OF_PERICENTER":113.8346,"MEAN_ANOMALY":246.2668,"EPHEMERIS_TYPE":0,"CLASSIFICATION_TYPE":"U","NORAD_CAT_ID":64523,"ELEMENT_SET_NO":999,"REV_AT_EPOCH":4001,"BSTAR":-0.0037038389,"MEAN_MOTION_DOT":-0.00028375,"MEAN_MOTION_DDOT":0},{"OBJECT_NAME":"NOAA 16 DEB","OBJECT_ID":"2000-055CW","EPOCH":"2026-03-07T07:19:51.843360","MEAN_MOTION":14.8431285,"ECCENTRICITY":0.0024489,"INCLINATION":99.0144,"RA_OF_ASC_NODE":13.4315,"ARG_OF_PERICENTER":245.2612,"MEAN_ANOMALY":114.605,"EPHEMERIS_TYPE":0,"CLASSIFICATION_TYPE":"U","NORAD_CAT_ID":41163,"ELEMENT_SET_NO":999,"REV_AT_EPOCH":53806,"BSTAR":0.0082493,"MEAN_MOTION_DOT":0.00070186,"MEAN_MOTION_DDOT":0}]
